0 COSMOS 2327
1 23773U 96004A   13282.73729829  .00000084  00000-0  72627-4 0  6823
2 23773 082.9808 294.7359 0047182 225.0951 267.4451 13.74355245889355
0 COSMOS 2327
1 23773U 96004A   13284.10586045  .00000083  00000-0  71709-4 0  6837
2 23773 082.9806 293.7286 0047260 221.2205 198.7081 13.74355447889548
0 COSMOS 2327
1 23773U 96004A   13286.14099480  .00000058  00000-0  45054-4 0  6853
2 23773 082.9804 292.2304 0047381 215.4763 187.9682 13.74355863889829
0 COSMOS 2327
1 23773U 96004A   13287.47391650  .00000047  00000-0  34094-4 0  6865
2 23773 082.9804 291.2491 0047449 211.7367 302.8604 13.74356020890009
0 COSMOS 2327
1 23773U 96004A   13288.49529686  .00000050  00000-0  37091-4 0  6875
2 23773 082.9805 290.4971 0047506 208.8616 316.3510 13.74356247890144
0 COSMOS 2327
1 23773U 96004A   13289.50259604  .00000035  00000-0  20422-4 0  6882
2 23773 082.9806 289.7554 0047602 206.0114 260.1877 13.74356349890283
0 COSMOS 2327
1 23773U 96004A   13290.59595443  .00000047  00000-0  33104-4 0  6892
2 23773 082.9808 288.9504 0047675 202.9468 269.7936 13.74356448890436
0 COSMOS 2327
1 23773U 96004A   13291.68965168  .00000061  00000-0  48227-4 0  6908
2 23773 082.9810 288.1452 0047718 199.8769 281.0808 13.74356457890580
0 COSMOS 2327
1 23773U 96004A   13292.70935953  .00000066  00000-0  53828-4 0  6910
2 23773 082.9811 287.3946 0047776 197.0098 286.2955 13.74356425890720
0 COSMOS 2327
1 23773U 96004A   13294.08220073  .00000074  00000-0  61262-4 0  6924
2 23773 082.9812 286.3840 0047886 193.1811 238.6786 13.74356535890911
0 COSMOS 2327
1 23773U 96004A   13295.10079097  .00000080  00000-0  67580-4 0  6933
2 23773 082.9812 285.6343 0047952 190.3423 238.3388 13.74356539891058
0 COSMOS 2327
1 23773U 96004A   13296.11533765  .00000079  00000-0  66514-4 0  6947
2 23773 082.9812 284.8876 0048057 187.5454 217.9621 13.74356591891195
